      2.10          N: GNSS NAV DATA                        RINEX VERSION / TYPE
fic2rin                                 12/10/2021 00:17:40 PGM / RUN BY / DATE
                                                            END OF HEADER
10 21 12  9 15 59 44.0-2.647559158504e-04-8.867573342286e-12 0.000000000000e+00
    3.000000000000e+00-8.603125000000e+01 4.334109104469e-09-1.309271342441e+00
   -4.479661583900e-06 7.315189461224e-03 5.291774868965e-06 5.153678268433e+03
    4.031840000000e+05 2.086162567139e-07 3.723463202331e-01-6.519258022308e-08
    9.717935912409e-01 2.800937500000e+02-2.563074836595e+00-8.024619971918e-09
    2.892977646988e-11 1.000000000000e+00 2.187000000000e+03 0.000000000000e+00
    2.400000000000e+00 0.000000000000e+00 2.328306436539e-09 3.000000000000e+00
    3.992400000000e+05 4.000000000000e+00
 3 21 12  9 17 59 44.0-3.644265234470e-05-1.182343112305e-11 0.000000000000e+00
    4.200000000000e+01-8.515625000000e+01 4.312322482684e-09 5.408349563811e-01
   -4.664063453674e-06 3.854776965454e-03 5.794689059258e-06 5.153723617554e+03
    4.103840000000e+05-2.048909664154e-08 3.750972674611e-01 1.117587089539e-08
    9.719510524284e-01 2.747187500000e+02 9.986514329950e-01-8.114266563201e-09
   -5.000208278745e-12 1.000000000000e+00 2.187000000000e+03 0.000000000000e+00
    2.400000000000e+00 0.000000000000e+00 1.862645149231e-09 4.200000000000e+01
    4.032000000000e+05 4.000000000000e+00
10 21 12  9 17 59 44.0-2.648197114468e-04-8.867573342286e-12 0.000000000000e+00
    7.000000000000e+00-8.653125000000e+01 4.414112436929e-09-2.590824158683e-01
   -4.420056939125e-06 7.315262919292e-03 5.422160029411e-06 5.153678470612e+03
    4.103840000000e+05 5.401670932770e-08 3.722880419656e-01 1.266598701477e-07
    9.717925394028e-01 2.809375000000e+02-2.563086968575e+00-8.258558287816e-09
   -2.642967233051e-11 1.000000000000e+00 2.187000000000e+03 0.000000000000e+00
    2.400000000000e+00 0.000000000000e+00 2.328306436539e-09 7.000000000000e+00
    4.032000000000e+05 4.000000000000e+00
28 21 12  9 17 59 44.0 4.464937373996e-04-7.617018127348e-12 0.000000000000e+00
    3.300000000000e+01 2.328125000000e+01 4.268749239112e-09-1.869424383681e+00
    1.341104507446e-06 1.722035068087e-02 8.106231689453e-06 5.153710065842e+03
    4.103840000000e+05-2.421438694000e-08-2.673234989093e+00 4.805624485016e-07
    9.705985480911e-01 2.288750000000e+02-1.304142328248e+00-7.797824810703e-09
   -5.150214527108e-10 1.000000000000e+00 2.187000000000e+03 0.000000000000e+00
    2.400000000000e+00 6.300000000000e+01-1.117587089539e-08 3.300000000000e+01
    4.032000000000e+05 4.000000000000e+00
 1 21 12  9 18  0  0.0 4.885438829660e-04-1.023181539495e-11 0.000000000000e+00
    7.800000000000e+01 2.525000000000e+01 3.981237263084e-09 1.720315921560e+00
    1.220032572746e-06 1.115480437875e-02 4.218891263008e-06 5.153674962997e+03
    4.104000000000e+05-2.700835466385e-07-6.602392779818e-01-2.235174179077e-08
    9.864124701645e-01 3.119062500000e+02 8.859044361043e-01-8.083550998060e-09
    1.678641350722e-10 1.000000000000e+00 2.187000000000e+03 0.000000000000e+00
    2.400000000000e+00 0.000000000000e+00 5.122274160385e-09 7.800000000000e+01
    4.032000000000e+05 4.000000000000e+00
12 21 12  9 18  0  0.0-1.383228227496e-04-5.570655048359e-12 0.000000000000e+00
    6.700000000000e+01 2.606250000000e+01 4.414469594664e-09 3.926155242068e-01
    1.322478055954e-06 8.429968962446e-03 8.022412657738e-06 5.153638362885e+03
    4.104000000000e+05-9.126961231232e-08-2.695368133565e+00 5.401670932770e-08
    9.714925036823e-01 2.309375000000e+02 1.229964088347e+00-8.058549956666e-09
   -4.978778814693e-10 1.000000000000e+00 2.187000000000e+03 0.000000000000e+00
    2.400000000000e+00 0.000000000000e+00-1.257285475731e-08 6.700000000000e+01
    4.032000000000e+05 4.000000000000e+00
 6 21 12  9 18  0  0.0 1.384238712490e-04 9.890754881781e-12 0.000000000000e+00
    4.000000000000e+01 1.890625000000e+01 3.936949704043e-09 2.116064924129e+00
    1.074746251106e-06 2.479111077264e-03 3.740191459656e-06 5.153630157471e+03
    4.104000000000e+05 7.264316082001e-08-6.684999287225e-01 5.215406417847e-08
    9.858063393167e-01 3.188125000000e+02-1.032645501784e+00-7.971403469522e-09
    1.650068731986e-10 1.000000000000e+00 2.187000000000e+03 0.000000000000e+00
    2.400000000000e+00 0.000000000000e+00 4.190951585770e-09 4.000000000000e+01
    4.032000000000e+05 4.000000000000e+00
 5 21 12  9 18  0  0.0-6.383797153831e-05-1.250555214938e-12 0.000000000000e+00
    1.000000000000e+02-9.328125000000e+01 4.571976155444e-09-1.929985287634e+00
   -4.855915904045e-06 5.939329275861e-03 5.453824996948e-06 5.153632839203e+03
    4.104000000000e+05 4.284083843231e-08 3.356173846112e-01 2.235174179077e-08
    9.589523669809e-01 2.662812500000e+02 1.018990103634e+00-8.196055684332e-09
    3.535861568541e-11 1.000000000000e+00 2.187000000000e+03 0.000000000000e+00
    2.400000000000e+00 0.000000000000e+00-1.117587089539e-08 1.000000000000e+02
    4.032000000000e+05 4.000000000000e+00
 8 21 12  9 18  0  0.0-4.741968587041e-05-1.477928890381e-12 0.000000000000e+00
    8.800000000000e+01 5.175000000000e+01 4.206603793361e-09-2.235158068425e+00
    2.697110176086e-06 6.903645116836e-03 8.895993232727e-06 5.153691287994e+03
    4.104000000000e+05-6.146728992462e-08-1.739045745116e+00-2.235174179077e-08
    9.653190347382e-01 2.131562500000e+02 6.002601867890e-02-7.892828767999e-09
   -4.821629411647e-11 1.000000000000e+00 2.187000000000e+03 0.000000000000e+00
    2.400000000000e+00 0.000000000000e+00 5.122274160385e-09 8.800000000000e+01
    4.032000000000e+05 4.000000000000e+00
 4 21 12  9 18  0  0.0-1.995745114982e-04 1.250555214938e-12 0.000000000000e+00
    1.740000000000e+02-3.543750000000e+01 4.507687763289e-09-2.715954310924e+00
   -1.780688762665e-06 1.580206095241e-03 1.006387174129e-05 5.153674722672e+03
    4.104000000000e+05 9.313225746155e-09 1.456187216591e+00-1.676380634308e-08
    9.605188786782e-01 1.897812500000e+02-3.131354531131e+00-7.874970881289e-09
    2.760829285336e-10 1.000000000000e+00 2.187000000000e+03 0.000000000000e+00
    2.400000000000e+00 0.000000000000e+00-4.190951585770e-09 6.860000000000e+02
    4.032000000000e+05 4.000000000000e+00
 9 21 12  9 18  0  0.0-3.607254475355e-04 6.821210263297e-13 0.000000000000e+00
    1.100000000000e+02-3.934375000000e+01 4.695552731476e-09-1.923459330042e+00
   -1.942738890648e-06 2.372963703237e-03 9.866431355476e-06 5.153663175583e+03
    4.104000000000e+05 9.313225746155e-09 1.403756977256e+00 3.166496753693e-08
    9.534943117910e-01 1.885000000000e+02 1.842747964249e+00-7.997475984119e-09
    2.621537768999e-10 1.000000000000e+00 2.187000000000e+03 0.000000000000e+00
    2.400000000000e+00 0.000000000000e+00 1.396983861923e-09 1.100000000000e+02
    4.032000000000e+05 4.000000000000e+00
13 21 12  9 18  0  0.0 2.269437536597e-04 5.798028723802e-12 0.000000000000e+00
    1.520000000000e+02-2.478125000000e+01 4.288750072227e-09-2.886528199280e+00
   -1.441687345505e-06 5.747172050178e-03 1.103058457375e-05 5.153681205750e+03
    4.104000000000e+05 1.862645149231e-08 1.555576841002e+00-7.264316082001e-08
    9.680016549144e-01 1.693437500000e+02 9.789618722743e-01-7.731036314408e-09
    3.317995350682e-10 1.000000000000e+00 2.187000000000e+03 0.000000000000e+00
    2.400000000000e+00 0.000000000000e+00-1.117587089539e-08 1.520000000000e+02
    4.032000000000e+05 4.000000000000e+00
 7 21 12  9 18  0  0.0 2.888101153076e-04 4.661160346586e-12 0.000000000000e+00
    9.200000000000e+01 2.706250000000e+01 5.164500836475e-09 1.072167703928e+00
    1.585111021996e-06 1.534805586562e-02 7.670372724533e-06 5.153712047577e+03
    4.104000000000e+05-1.564621925354e-07 2.476046871417e+00 1.881271600723e-07
    9.510623245919e-01 2.310937500000e+02-2.300074047316e+00-8.512497436829e-09
   -1.607209803882e-11 1.000000000000e+00 2.187000000000e+03 0.000000000000e+00
    2.400000000000e+00 0.000000000000e+00-1.117587089539e-08 9.200000000000e+01
    4.032000000000e+05 4.000000000000e+00
14 21 12  9 18  0  0.0-5.243718624115e-05-6.252776074689e-12 0.000000000000e+00
    2.180000000000e+02 1.493750000000e+01 4.748769233871e-09 3.795190602408e-01
    6.016343832016e-07 1.218073884957e-03 7.512047886848e-06 5.153643827438e+03
    4.104000000000e+05-4.097819328308e-08-2.725585465746e+00 3.166496753693e-08
    9.549258941650e-01 2.304687500000e+02 3.089437673994e+00-8.154625387165e-09
   -5.021637742797e-10 1.000000000000e+00 2.187000000000e+03 0.000000000000e+00
    2.400000000000e+00 0.000000000000e+00-7.916241884232e-09 2.180000000000e+02
    4.032000000000e+05 4.000000000000e+00
11 21 12  9 18  0  0.0 1.447973772883e-05-3.069544618484e-12 0.000000000000e+00
    1.460000000000e+02 1.693750000000e+01 4.497687346731e-09-2.185492011337e+00
    1.005828380585e-06 3.672703169286e-04 3.522261977196e-06 5.153744575500e+03
    4.104000000000e+05 6.519258022308e-08-6.148962930359e-01-2.421438694000e-08
    9.615073929052e-01 3.114687500000e+02 2.655936886889e+00-8.307488897401e-09
    2.182233755938e-10 1.000000000000e+00 2.187000000000e+03 0.000000000000e+00
    9.999999999999e+99 6.300000000000e+01-8.847564458847e-09 1.460000000000e+02
    4.032000000000e+05 4.000000000000e+00
31 21 12  9 18  0  0.0-1.542228274047e-04-1.932676241267e-12 0.000000000000e+00
    3.700000000000e+01 2.300000000000e+01 4.985207653909e-09 6.229919778194e-01
    1.419335603714e-06 1.042636728380e-02 7.217749953270e-06 5.153649051666e+03
    4.104000000000e+05 5.029141902924e-08 2.493869276146e+00 1.322478055954e-07
    9.553340804934e-01 2.346250000000e+02 3.481840513319e-01-8.240700401106e-09
    4.250177036933e-11 1.000000000000e+00 2.187000000000e+03 0.000000000000e+00
    2.400000000000e+00 0.000000000000e+00-1.303851604462e-08 3.700000000000e+01
    4.032000000000e+05 4.000000000000e+00
